ORBCOMM FM24            
1 25478U 98053D   24275.42151694  .00005044  00000+0  17494-2 0  9992
2 25478  45.0080  54.7557 0000585 264.4440  95.6341 14.36514476360211
ORBCOMM FM25            
1 25479U 98053E   24275.45912178  .00005147  00000+0  17846-2 0  9993
2 25479  45.0073  52.8305 0002155  26.4094 333.6863 14.36497845360517
ORBCOMM FM26            
1 25480U 98053F   24275.52709651  .00004036  00000+0  14296-2 0  9995
2 25480  45.0070  47.2983 0004300  56.7081 303.4178 14.35803802360452
ORBCOMM FM27            
1 25481U 98053G   24275.44839133  .00005452  00000+0  18876-2 0  9997
2 25481  45.0057  53.1383 0001791 207.3063 152.7690 14.36492455360445
ORBCOMM FM28            
1 25482U 98053H   24275.60270415  .00004427  00000+0  15308-2 0  9996
2 25482  45.0067 350.4288 0001757  97.6947 262.4100 14.36855026361147
ORBCOMM FM30            
1 25980U 99065A   24275.26659841  .00004631  00000+0  16282-2 0  9998
2 25980  45.0295 234.2011 0004386 155.5683 204.5373 14.35950062297218
ORBCOMM FM31            
1 25981U 99065B   24275.58099681  .00004245  00000+0  14973-2 0  9990
2 25981  45.0214 226.3149 0002310 202.9600 157.1145 14.35928037296817
ORBCOMM FM32            
1 25982U 99065C   24275.59266212  .00004586  00000+0  16456-2 0  9994
2 25982  45.0141 241.0782 0004381 195.1736 164.8980 14.34948678297430
