<?xml version="1.0" encoding="UTF-8"?>
<ndm xmlns:xsi="http://www.w3.org/2001/XMLSchema-instance" xsi:noNamespaceSchemaLocation="https://sanaregistry.org/r/ndmxml_unqualified/ndmxml-2.0.0-master-2.0.xsd">
<omm id="CCSDS_OMM_VERS" version="2.0">
<header><CREATION_DATE/><ORIGINATOR/></header><body><segment><metadata><OBJECT_NAME>ORBCOMM FM24</OBJECT_NAME><OBJECT_ID>1998-053D</OBJECT_ID><CENTER_NAME>EARTH</CENTER_NAME><REF_FRAME>TEME</REF_FRAME><TIME_SYSTEM>UTC</TIME_SYSTEM><MEAN_ELEMENT_THEORY>SGP4</MEAN_ELEMENT_THEORY></metadata><data><meanElements><EPOCH>2024-10-01T10:06:59.063616</EPOCH><MEAN_MOTION>14.36514476</MEAN_MOTION><ECCENTRICITY>.0000585</ECCENTRICITY><INCLINATION>45.0080</INCLINATION><RA_OF_ASC_NODE>54.7557</RA_OF_ASC_NODE><ARG_OF_PERICENTER>264.4440</ARG_OF_PERICENTER><MEAN_ANOMALY>95.6341</MEAN_ANOMALY></meanElements><tleParameters><EPHEMERIS_TYPE>0</EPHEMERIS_TYPE><CLASSIFICATION_TYPE>U</CLASSIFICATION_TYPE><NORAD_CAT_ID>25478</NORAD_CAT_ID><ELEMENT_SET_NO>999</ELEMENT_SET_NO><REV_AT_EPOCH>36021</REV_AT_EPOCH><BSTAR>.17494E-2</BSTAR><MEAN_MOTION_DOT>.5044E-4</MEAN_MOTION_DOT><MEAN_MOTION_DDOT>0</MEAN_MOTION_DDOT></tleParameters></data></segment></body></omm>
<omm id="CCSDS_OMM_VERS" version="2.0">
<header><CREATION_DATE/><ORIGINATOR/></header><body><segment><metadata><OBJECT_NAME>ORBCOMM FM25</OBJECT_NAME><OBJECT_ID>1998-053E</OBJECT_ID><CENTER_NAME>EARTH</CENTER_NAME><REF_FRAME>TEME</REF_FRAME><TIME_SYSTEM>UTC</TIME_SYSTEM><MEAN_ELEMENT_THEORY>SGP4</MEAN_ELEMENT_THEORY></metadata><data><meanElements><EPOCH>2024-10-01T11:01:08.121792</EPOCH><MEAN_MOTION>14.36497845</MEAN_MOTION><ECCENTRICITY>.0002155</ECCENTRICITY><INCLINATION>45.0073</INCLINATION><RA_OF_ASC_NODE>52.8305</RA_OF_ASC_NODE><ARG_OF_PERICENTER>26.4094</ARG_OF_PERICENTER><MEAN_ANOMALY>333.6863</MEAN_ANOMALY></meanElements><tleParameters><EPHEMERIS_TYPE>0</EPHEMERIS_TYPE><CLASSIFICATION_TYPE>U</CLASSIFICATION_TYPE><NORAD_CAT_ID>25479</NORAD_CAT_ID><ELEMENT_SET_NO>999</ELEMENT_SET_NO><REV_AT_EPOCH>36051</REV_AT_EPOCH><BSTAR>.17846E-2</BSTAR><MEAN_MOTION_DOT>.5147E-4</MEAN_MOTION_DOT><MEAN_MOTION_DDOT>0</MEAN_MOTION_DDOT></tleParameters></data></segment></body></omm>
<omm id="CCSDS_OMM_VERS" version="2.0">
<header><CREATION_DATE/><ORIGINATOR/></header><body><segment><metadata><OBJECT_NAME>ORBCOMM FM26</OBJECT_NAME><OBJECT_ID>1998-053F</OBJECT_ID><CENTER_NAME>EARTH</CENTER_NAME><REF_FRAME>TEME</REF_FRAME><TIME_SYSTEM>UTC</TIME_SYSTEM><MEAN_ELEMENT_THEORY>SGP4</MEAN_ELEMENT_THEORY></metadata><data><meanElements><EPOCH>2024-10-01T12:39:01.138464</EPOCH><MEAN_MOTION>14.35803802</MEAN_MOTION><ECCENTRICITY>.00043</ECCENTRICITY><INCLINATION>45.0070</INCLINATION><RA_OF_ASC_NODE>47.2983</RA_OF_ASC_NODE><ARG_OF_PERICENTER>56.7081</ARG_OF_PERICENTER><MEAN_ANOMALY>303.4178</MEAN_ANOMALY></meanElements><tleParameters><EPHEMERIS_TYPE>0</EPHEMERIS_TYPE><CLASSIFICATION_TYPE>U</CLASSIFICATION_TYPE><NORAD_CAT_ID>25480</NORAD_CAT_ID><ELEMENT_SET_NO>999</ELEMENT_SET_NO><REV_AT_EPOCH>36045</REV_AT_EPOCH><BSTAR>.14296E-2</BSTAR><MEAN_MOTION_DOT>.4036E-4</MEAN_MOTION_DOT><MEAN_MOTION_DDOT>0</MEAN_MOTION_DDOT></tleParameters></data></segment></body></omm>
<omm id="CCSDS_OMM_VERS" version="2.0">
<header><CREATION_DATE/><ORIGINATOR/></header><body><segment><metadata><OBJECT_NAME>ORBCOMM FM27</OBJECT_NAME><OBJECT_ID>1998-053G</OBJECT_ID><CENTER_NAME>EARTH</CENTER_NAME><REF_FRAME>TEME</REF_FRAME><TIME_SYSTEM>UTC</TIME_SYSTEM><MEAN_ELEMENT_THEORY>SGP4</MEAN_ELEMENT_THEORY></metadata><data><meanElements><EPOCH>2024-10-01T10:45:41.010912</EPOCH><MEAN_MOTION>14.36492455</MEAN_MOTION><ECCENTRICITY>.0001791</ECCENTRICITY><INCLINATION>45.0057</INCLINATION><RA_OF_ASC_NODE>53.1383</RA_OF_ASC_NODE><ARG_OF_PERICENTER>207.3063</ARG_OF_PERICENTER><MEAN_ANOMALY>152.7690</MEAN_ANOMALY></meanElements><tleParameters><EPHEMERIS_TYPE>0</EPHEMERIS_TYPE><CLASSIFICATION_TYPE>U</CLASSIFICATION_TYPE><NORAD_CAT_ID>25481</NORAD_CAT_ID><ELEMENT_SET_NO>999</ELEMENT_SET_NO><REV_AT_EPOCH>36044</REV_AT_EPOCH><BSTAR>.18876E-2</BSTAR><MEAN_MOTION_DOT>.5452E-4</MEAN_MOTION_DOT><MEAN_MOTION_DDOT>0</MEAN_MOTION_DDOT></tleParameters></data></segment></body></omm>
<omm id="CCSDS_OMM_VERS" version="2.0">
<header><CREATION_DATE/><ORIGINATOR/></header><body><segment><metadata><OBJECT_NAME>ORBCOMM FM28</OBJECT_NAME><OBJECT_ID>1998-053H</OBJECT_ID><CENTER_NAME>EARTH</CENTER_NAME><REF_FRAME>TEME</REF_FRAME><TIME_SYSTEM>UTC</TIME_SYSTEM><MEAN_ELEMENT_THEORY>SGP4</MEAN_ELEMENT_THEORY></metadata><data><meanElements><EPOCH>2024-10-01T14:27:53.638560</EPOCH><MEAN_MOTION>14.36855026</MEAN_MOTION><ECCENTRICITY>.0001757</ECCENTRICITY><INCLINATION>45.0067</INCLINATION><RA_OF_ASC_NODE>350.4288</RA_OF_ASC_NODE><ARG_OF_PERICENTER>97.6947</ARG_OF_PERICENTER><MEAN_ANOMALY>262.4100</MEAN_ANOMALY></meanElements><tleParameters><EPHEMERIS_TYPE>0</EPHEMERIS_TYPE><CLASSIFICATION_TYPE>U</CLASSIFICATION_TYPE><NORAD_CAT_ID>25482</NORAD_CAT_ID><ELEMENT_SET_NO>999</ELEMENT_SET_NO><REV_AT_EPOCH>36114</REV_AT_EPOCH><BSTAR>.15308E-2</BSTAR><MEAN_MOTION_DOT>.4427E-4</MEAN_MOTION_DOT><MEAN_MOTION_DDOT>0</MEAN_MOTION_DDOT></tleParameters></data></segment></body></omm>
<omm id="CCSDS_OMM_VERS" version="2.0">
<header><CREATION_DATE/><ORIGINATOR/></header><body><segment><metadata><OBJECT_NAME>ORBCOMM FM30</OBJECT_NAME><OBJECT_ID>1999-065A</OBJECT_ID><CENTER_NAME>EARTH</CENTER_NAME><REF_FRAME>TEME</REF_FRAME><TIME_SYSTEM>UTC</TIME_SYSTEM><MEAN_ELEMENT_THEORY>SGP4</MEAN_ELEMENT_THEORY></metadata><data><meanElements><EPOCH>2024-10-01T06:23:54.102624</EPOCH><MEAN_MOTION>14.35950062</MEAN_MOTION><ECCENTRICITY>.0004386</ECCENTRICITY><INCLINATION>45.0295</INCLINATION><RA_OF_ASC_NODE>234.2011</RA_OF_ASC_NODE><ARG_OF_PERICENTER>155.5683</ARG_OF_PERICENTER><MEAN_ANOMALY>204.5373</MEAN_ANOMALY></meanElements><tleParameters><EPHEMERIS_TYPE>0</EPHEMERIS_TYPE><CLASSIFICATION_TYPE>U</CLASSIFICATION_TYPE><NORAD_CAT_ID>25980</NORAD_CAT_ID><ELEMENT_SET_NO>999</ELEMENT_SET_NO><REV_AT_EPOCH>29721</REV_AT_EPOCH><BSTAR>.16282E-2</BSTAR><MEAN_MOTION_DOT>.4631E-4</MEAN_MOTION_DOT><MEAN_MOTION_DDOT>0</MEAN_MOTION_DDOT></tleParameters></data></segment></body></omm>
<omm id="CCSDS_OMM_VERS" version="2.0">
<header><CREATION_DATE/><ORIGINATOR/></header><body><segment><metadata><OBJECT_NAME>ORBCOMM FM31</OBJECT_NAME><OBJECT_ID>1999-065B</OBJECT_ID><CENTER_NAME>EARTH</CENTER_NAME><REF_FRAME>TEME</REF_FRAME><TIME_SYSTEM>UTC</TIME_SYSTEM><MEAN_ELEMENT_THEORY>SGP4</MEAN_ELEMENT_THEORY></metadata><data><meanElements><EPOCH>2024-10-01T13:56:38.124384</EPOCH><MEAN_MOTION>14.35928037</MEAN_MOTION><ECCENTRICITY>.000231</ECCENTRICITY><INCLINATION>45.0214</INCLINATION><RA_OF_ASC_NODE>226.3149</RA_OF_ASC_NODE><ARG_OF_PERICENTER>202.9600</ARG_OF_PERICENTER><MEAN_ANOMALY>157.1145</MEAN_ANOMALY></meanElements><tleParameters><EPHEMERIS_TYPE>0</EPHEMERIS_TYPE><CLASSIFICATION_TYPE>U</CLASSIFICATION_TYPE><NORAD_CAT_ID>25981</NORAD_CAT_ID><ELEMENT_SET_NO>999</ELEMENT_SET_NO><REV_AT_EPOCH>29681</REV_AT_EPOCH><BSTAR>.14973E-2</BSTAR><MEAN_MOTION_DOT>.4245E-4</MEAN_MOTION_DOT><MEAN_MOTION_DDOT>0</MEAN_MOTION_DDOT></tleParameters></data></segment></body></omm>
<omm id="CCSDS_OMM_VERS" version="2.0">
<header><CREATION_DATE/><ORIGINATOR/></header><body><segment><metadata><OBJECT_NAME>ORBCOMM FM32</OBJECT_NAME><OBJECT_ID>1999-065C</OBJECT_ID><CENTER_NAME>EARTH</CENTER_NAME><REF_FRAME>TEME</REF_FRAME><TIME_SYSTEM>UTC</TIME_SYSTEM><MEAN_ELEMENT_THEORY>SGP4</MEAN_ELEMENT_THEORY></metadata><data><meanElements><EPOCH>2024-10-01T14:13:26.007168</EPOCH><MEAN_MOTION>14.34948678</MEAN_MOTION><ECCENTRICITY>.0004381</ECCENTRICITY><INCLINATION>45.0141</INCLINATION><RA_OF_ASC_NODE>241.0782</RA_OF_ASC_NODE><ARG_OF_PERICENTER>195.1736</ARG_OF_PERICENTER><MEAN_ANOMALY>164.8980</MEAN_ANOMALY></meanElements><tleParameters><EPHEMERIS_TYPE>0</EPHEMERIS_TYPE><CLASSIFICATION_TYPE>U</CLASSIFICATION_TYPE><NORAD_CAT_ID>25982</NORAD_CAT_ID><ELEMENT_SET_NO>999</ELEMENT_SET_NO><REV_AT_EPOCH>29743</REV_AT_EPOCH><BSTAR>.16456E-2</BSTAR><MEAN_MOTION_DOT>.4586E-4</MEAN_MOTION_DOT><MEAN_MOTION_DDOT>0</MEAN_MOTION_DDOT></tleParameters></data></segment></body></omm>

</ndm>
